NORAD_CAT_ID,OBJECT_NAME,OBJECT_TYPE,EPOCH,MEAN_MOTION,ECCENTRICITY,INCLINATION,RA_OF_ASC_NODE,ARG_OF_PERICENTER,MEAN_ANOMALY,BSTAR,MEAN_MOTION_DOT,MEAN_MOTION_DDOT,TLE_LINE0,TLE_LINE1,TLE_LINE2,SEMIMAJOR_AXIS,PERIOD,APOGEE,PERIGEE,DECAYED
53280.0,STARLINK-4169,PAYLOAD,2024-03-17 14:13:54,15.08838988,0.0001394,53.2169,140.4107,100.9874,259.1275,9.1655e-05,1.171e-05,0.0,0 STARLINK-4169,1 53280U 22086AQ  24077.59298643  .00001171  00000-0  91655-4 0  9992,2 53280  53.2169 140.4107 0001394 100.9874 259.1275 15.08838988 92829,6917.883,95.438,540.713,538.784,0.0
53280.0,STARLINK-4169,PAYLOAD,2024-03-18 09:18:31,15.08836239,0.0001414,53.2168,136.8422,100.0522,260.063,8.0761e-05,9.97e-06,0.0,0 STARLINK-4169,1 53280U 22086AQ  24078.38787005  .00000997  00000-0  80761-4 0  9996,2 53280  53.2168 136.8422 0001414 100.0522 260.0630 15.08836239 92947,6917.892,95.438,540.735,538.779,0.0
53280.0,STARLINK-4169,PAYLOAD,2024-03-19 09:09:18,15.08842017,0.0001432,53.2166,132.3813,95.6295,264.4861,5.8054e-05,6.36e-06,0.0,0 STARLINK-4169,1 53280U 22086AQ  24079.38146897  .00000636  00000-0  58054-4 0  9995,2 53280  53.2166 132.3813 0001432  95.6295 264.4861 15.08842017 92929,6917.874,95.437,540.73,538.749,0.0
53280.0,STARLINK-4169,PAYLOAD,2024-03-20 10:35:29,15.0883567,0.000142,53.2163,127.6238,88.4605,271.6549,3.2402e-05,2.28e-06,0.0,0 STARLINK-4169,1 53280U 22086AQ  24080.44131494  .00000228  00000-0  32402-4 0  9997,2 53280  53.2163 127.6238 0001420  88.4605 271.6549 15.08835670 93084,6917.894,95.438,540.741,538.776,0.0
53280.0,STARLINK-4169,PAYLOAD,2024-03-20 12:10:52,15.08835763,0.000142,53.2162,127.3256,84.2829,275.8325,3.2553e-05,2.3e-06,0.0,0 STARLINK-4169,1 53280U 22086AQ  24080.50755543  .00000230  00000-0  32553-4 0  9991,2 53280  53.2162 127.3256 0001420  84.2829 275.8325 15.08835763 93263,6917.893,95.438,540.741,538.776,0.0
53280.0,STARLINK-4169,PAYLOAD,2024-03-21 12:01:41,15.08820946,0.0001423,53.2164,122.8668,83.3457,276.7697,-9.2474e-05,-1.759e-05,0.0,0 STARLINK-4169,1 53280U 22086AQ  24081.50117452 -.00001759  00000-0 -92474-4 0  9990,2 53280  53.2164 122.8668 0001423  83.3457 276.7697 15.08820946 93249,6917.939,95.439,540.788,538.819,0.0
53280.0,STARLINK-4169,PAYLOAD,2024-03-22 08:41:40,15.08840431,0.0002223,53.2172,118.9999,69.4683,290.6547,0.00015312,2.15e-05,0.0,0 STARLINK-4169,1 53280U 22086AQ  24082.36227994  .00002150  00000-0  15312-3 0  9997,2 53280  53.2172 118.9999 0002223  69.4683 290.6547 15.08840431 93370,6917.879,95.438,541.282,538.206,0.0
53280.0,STARLINK-4169,PAYLOAD,2024-03-23 08:32:27,15.08836097,0.0001733,53.2169,114.539,118.5114,241.6053,0.00022907,3.359e-05,0.0,0 STARLINK-4169,1 53280U 22086AQ  24083.35587739  .00003359  00000-0  22907-3 0  9993,2 53280  53.2169 114.5390 0001733 118.5114 241.6053 15.08836097 93699,6917.892,95.438,540.956,538.558,0.0
53280.0,STARLINK-4169,PAYLOAD,2024-03-24 05:12:28,15.08856601,0.0001708,53.2177,110.6814,92.6534,267.4654,-5.2382e-05,-1.122e-05,0.0,0 STARLINK-4169,1 53280U 22086AQ  24084.21699387 -.00001122  00000-0 -52382-4 0  9991,2 53280  53.2177 110.6814 0001708  92.6534 267.4654 15.08856601 93658,6917.83,95.437,540.876,538.513,0.0
53280.0,STARLINK-4169,PAYLOAD,2024-03-24 11:33:59,15.08873375,0.0002008,53.2176,109.4847,99.3228,260.7992,-1.917e-05,-5.94e-06,0.0,0 STARLINK-4169,1 53280U 22086AQ  24084.48193893 -.00000594  00000-0 -19170-4 0  9991,2 53280  53.2176 109.4847 0002008  99.3228 260.7992 15.08873375 93699,6917.778,95.435,541.032,538.254,0.0
53280.0,STARLINK-4169,PAYLOAD,2024-03-25 05:03:15,15.08834478,0.0001715,53.2174,106.2166,106.9856,253.1325,1.2335e-05,-9.2e-07,0.0,0 STARLINK-4169,1 53280U 22086AQ  24085.21059942 -.00000092  00000-0  12335-4 0  9997,2 53280  53.2174 106.2166 0001715 106.9856 253.1325 15.08834478 93802,6917.897,95.438,540.949,538.576,0.0
53280.0,STARLINK-4169,PAYLOAD,2024-03-25 17:46:19,15.08856434,0.0001585,53.2164,103.8345,97.6407,262.4765,0.00024835,3.668e-05,0.0,0 STARLINK-4169,1 53280U 22086AQ  24085.74050354  .00003668  00000-0  24835-3 0  9991,2 53280  53.2164 103.8345 0001585  97.6407 262.4765 15.08856434 93881,6917.83,95.437,540.792,538.599,0.0
53280.0,STARLINK-4169,PAYLOAD,2024-03-26 04:54:02,15.08823851,0.0001571,53.2156,101.7506,82.851,277.266,-0.00033523,-5.617e-05,0.0,0 STARLINK-4169,1 53280U 22086AQ  24086.20420103 -.00005617  00000-0 -33523-3 0  9998,2 53280  53.2156 101.7506 0001571  82.8510 277.2660 15.08823851 93957,6917.93,95.439,540.882,538.708,0.0
53280.0,STARLINK-4169,PAYLOAD,2024-03-26 08:04:49,15.08828256,0.0001587,53.2162,101.1592,87.5405,272.5769,-0.00023581,-4.038e-05,0.0,0 STARLINK-4169,1 53280U 22086AQ  24086.33667998 -.00004038  00000-0 -23581-3 0  9996,2 53280  53.2162 101.1592 0001587  87.5405 272.5769 15.08828256 94149,6917.916,95.438,540.879,538.683,0.0
53280.0,STARLINK-4169,PAYLOAD,2024-03-26 17:37:07,15.08832122,0.0001721,53.217,99.3761,95.3165,264.8024,-0.00015315,-2.724e-05,0.0,0 STARLINK-4169,1 53280U 22086AQ  24086.73412033 -.00002724  00000-0 -15315-3 0  9994,2 53280  53.2170  99.3761 0001721  95.3165 264.8024 15.08832122 94037,6917.904,95.438,540.96,538.579,0.0
53280.0,STARLINK-4169,PAYLOAD,2024-03-27 07:55:36,15.08835302,0.0001515,53.2164,96.7007,99.2188,260.8975,0.00020108,2.913e-05,0.0,0 STARLINK-4169,1 53280U 22086AQ  24087.33028412  .00002913  00000-0  20108-3 0  9999,2 53280  53.2164  96.7007 0001515  99.2188 260.8975 15.08835302 94295,6917.895,95.438,540.808,538.712,0.0
53280.0,STARLINK-4169,PAYLOAD,2024-03-27 17:27:55,15.08842628,0.0001461,53.2154,94.9155,93.7122,266.4037,0.00023716,3.489e-05,0.0,0 STARLINK-4169,1 53280U 22086AQ  24087.72772211  .00003489  00000-0  23716-3 0  9992,2 53280  53.2154  94.9155 0001461  93.7122 266.4037 15.08842628 94183,6917.872,95.437,540.748,538.727,0.0
53280.0,STARLINK-4169,PAYLOAD,2024-03-28 04:35:39,15.08804972,0.0002016,53.2165,92.8344,118.2122,241.9073,-0.00023946,-4.094e-05,0.0,0 STARLINK-4169,1 53280U 22086AQ  24088.19142680 -.00004094  00000-0 -23946-3 0  9995,2 53280  53.2165  92.8344 0002016 118.2122 241.9073 15.08804972 94258,6917.987,95.44,541.247,538.458,0.0
53280.0,STARLINK-4169,PAYLOAD,2024-03-28 07:46:24,15.08833169,0.0001332,53.2156,92.2359,83.6661,276.4482,0.00032622,4.907e-05,0.0,0 STARLINK-4169,1 53280U 22086AQ  24088.32389861  .00004907  00000-0  32622-3 0  9996,2 53280  53.2156  92.2359 0001332  83.6661 276.4482 15.08833169 94270,6917.901,95.438,540.688,538.845,0.0
53280.0,STARLINK-4169,PAYLOAD,2024-03-28 17:18:43,15.08844217,0.0001453,53.2158,90.4536,85.3205,274.7953,0.00046808,7.17e-05,0.0,0 STARLINK-4169,1 53280U 22086AQ  24088.72133760  .00007170  00000-0  46808-3 0  9991,2 53280  53.2158  90.4536 0001453  85.3205 274.7953 15.08844217 94502,6917.867,95.437,540.738,538.727,0.0
53280.0,STARLINK-4169,PAYLOAD,2024-03-29 04:26:24,15.08859291,0.0001276,53.2151,88.3727,84.0173,276.0965,0.00064006,9.919e-05,0.0,0 STARLINK-4169,1 53280U 22086AQ  24089.18501018  .00009919  00000-0  64006-3 0  9990,2 53280  53.2151  88.3727 0001276  84.0173 276.0965 15.08859291 94401,6917.821,95.436,540.569,538.804,0.0
53280.0,STARLINK-4169,PAYLOAD,2024-03-29 09:12:34,15.08875034,0.0001478,53.2153,87.48,82.6476,277.4684,0.0012923,0.00020359,0.0,0 STARLINK-4169,1 53280U 22086AQ  24089.38372837  .00020359  00000-0  12923-2 0  9998,2 53280  53.2153  87.4800 0001478  82.6476 277.4684 15.08875034 94607,6917.773,95.435,540.661,538.616,0.0
53280.0,STARLINK-4169,PAYLOAD,2024-03-29 17:09:28,15.0888582,0.000153,53.2151,85.9927,82.6851,277.4315,0.00082367,0.00012861,0.0,0 STARLINK-4169,1 53280U 22086AQ  24089.71491888  .00012861  00000-0  82367-3 0  9992,2 53280  53.2151  85.9927 0001530  82.6851 277.4315 15.08885820 94485,6917.74,95.435,540.664,538.547,0.0
53280.0,STARLINK-4169,PAYLOAD,2024-03-30 05:52:34,15.08844653,0.000137,53.2162,83.6126,100.2988,259.8159,-0.00041582,-6.9e-05,0.0,0 STARLINK-4169,1 53280U 22086AQ  24090.24483934 -.00006900  00000-0 -41582-3 0  9998,2 53280  53.2162  83.6126 0001370 100.2988 259.8159 15.08844653 94561,6917.866,95.437,540.679,538.783,0.0
53280.0,STARLINK-4169,PAYLOAD,2024-03-30 09:03:20,15.0884634,0.0001534,53.2161,83.0175,102.4032,257.7131,-6.555e-05,-1.331e-05,0.0,0 STARLINK-4169,1 53280U 22086AQ  24090.37731970 -.00001331  00000-0 -65550-4 0  9993,2 53280  53.2161  83.0175 0001534 102.4032 257.7131 15.08846340 94757,6917.861,95.437,540.787,538.665,0.0
53280.0,STARLINK-4169,PAYLOAD,2024-03-30 17:00:16,15.08849096,0.0001566,53.2155,81.5314,98.491,261.6259,0.00062714,9.709e-05,0.0,0 STARLINK-4169,1 53280U 22086AQ  24090.70852100  .00009709  00000-0  62714-3 0  9992,2 53280  53.2155  81.5314 0001566  98.4910 261.6259 15.08849096 94804,6917.853,95.437,540.801,538.634,0.0
53280.0,STARLINK-4169,PAYLOAD,2024-03-31 08:54:07,15.0884725,0.0001683,53.2169,78.5573,101.8609,258.2572,0.00056587,8.731e-05,0.0,0 STARLINK-4169,1 53280U 22086AQ  24091.37092400  .00008731  00000-0  56587-3 0  9990,2 53280  53.2169  78.5573 0001683 101.8609 258.2572 15.08847250 94738,6917.858,95.437,540.888,538.559,0.0
53280.0,STARLINK-4169,PAYLOAD,2024-04-01 05:34:09,15.08834716,0.0001401,53.217,74.6906,92.477,267.6382,0.00011542,1.549e-05,0.0,0 STARLINK-4169,1 53280U 22086AQ  24092.23204956  .00001549  00000-0  11542-3 0  9999,2 53280  53.2170  74.6906 0001401  92.4770 267.6382 15.08834716 94869,6917.897,95.438,540.731,538.792,0.0
53280.0,STARLINK-4169,PAYLOAD,2024-04-01 08:44:55,15.08836385,0.0001357,53.2163,74.0985,88.4559,271.6589,9.2774e-05,1.189e-05,0.0,0 STARLINK-4169,1 53280U 22086AQ  24092.36452936  .00001189  00000-0  92774-4 0  9993,2 53280  53.2163  74.0985 0001357  88.4559 271.6589 15.08836385 95052,6917.891,95.438,540.695,538.818,0.0
53280.0,STARLINK-4169,PAYLOAD,2024-04-02 05:24:55,15.08844697,0.0001329,53.2164,70.2325,88.1225,271.9919,0.00026318,3.904e-05,0.0,0 STARLINK-4169,1 53280U 22086AQ  24093.22564768  .00003904  00000-0  26318-3 0  9993,2 53280  53.2164  70.2325 0001329  88.1225 271.9919 15.08844697 95184,6917.866,95.437,540.65,538.812,0.0
